{"fetchedAt":"2026-06-29T18:07:57.194Z","satellites":[{"id":"43574","name":"IRIDIUM 154","constellationId":"iridium","omm":{"OBJECT_NAME":"IRIDIUM 154","OBJECT_ID":"2018-061F","EPOCH":"2026-06-28T17:50:30.485760","MEAN_MOTION":14.34217614,"ECCENTRICITY":0.00021957,"INCLINATION":86.3952,"RA_OF_ASC_NODE":51.9744,"ARG_OF_PERICENTER":89.3902,"MEAN_ANOMALY":270.7545,"EPHEMERIS_TYPE":0,"CLASSIFICATION_TYPE":"U","NORAD_CAT_ID":43574,"ELEMENT_SET_NO":999,"REV_AT_EPOCH":41506,"BSTAR":0.000005004183,"MEAN_MOTION_DOT":3.4e-7,"MEAN_MOTION_DDOT":0}},{"id":"43575","name":"IRIDIUM 163","constellationId":"iridium","omm":{"OBJECT_NAME":"IRIDIUM 163","OBJECT_ID":"2018-061G","EPOCH":"2026-06-29T03:25:54.494976","MEAN_MOTION":14.34217827,"ECCENTRICITY":0.0002187,"INCLINATION":86.3949,"RA_OF_ASC_NODE":51.7222,"ARG_OF_PERICENTER":83.8633,"MEAN_ANOMALY":276.2812,"EPHEMERIS_TYPE":0,"CLASSIFICATION_TYPE":"U","NORAD_CAT_ID":43575,"ELEMENT_SET_NO":999,"REV_AT_EPOCH":41509,"BSTAR":0.000018252,"MEAN_MOTION_DOT":7.1e-7,"MEAN_MOTION_DDOT":0}},{"id":"43576","name":"IRIDIUM 156","constellationId":"iridium","omm":{"OBJECT_NAME":"IRIDIUM 156","OBJECT_ID":"2018-061H","EPOCH":"2026-06-28T16:46:34.755168","MEAN_MOTION":14.34219516,"ECCENTRICITY":0.00020161,"INCLINATION":86.395,"RA_OF_ASC_NODE":51.9152,"ARG_OF_PERICENTER":86.2814,"MEAN_ANOMALY":273.8613,"EPHEMERIS_TYPE":0,"CLASSIFICATION_TYPE":"U","NORAD_CAT_ID":43576,"ELEMENT_SET_NO":999,"REV_AT_EPOCH":41502,"BSTAR":0.000073046686,"MEAN_MOTION_DOT":0.00000224,"MEAN_MOTION_DDOT":0}},{"id":"43577","name":"IRIDIUM 164","constellationId":"iridium","omm":{"OBJECT_NAME":"IRIDIUM 164","OBJECT_ID":"2018-061J","EPOCH":"2026-06-28T17:59:38.482944","MEAN_MOTION":14.34217769,"ECCENTRICITY":0.0002231,"INCLINATION":86.3952,"RA_OF_ASC_NODE":51.9345,"ARG_OF_PERICENTER":90.2361,"MEAN_ANOMALY":269.909,"EPHEMERIS_TYPE":0,"CLASSIFICATION_TYPE":"U","NORAD_CAT_ID":43577,"ELEMENT_SET_NO":999,"REV_AT_EPOCH":41507,"BSTAR":0.000005690458,"MEAN_MOTION_DOT":3.6e-7,"MEAN_MOTION_DDOT":0}},{"id":"43578","name":"IRIDIUM 159","constellationId":"iridium","omm":{"OBJECT_NAME":"IRIDIUM 159","OBJECT_ID":"2018-061K","EPOCH":"2026-06-29T13:19:34.521888","MEAN_MOTION":14.34217593,"ECCENTRICITY":0.0002211,"INCLINATION":86.3947,"RA_OF_ASC_NODE":51.5341,"ARG_OF_PERICENTER":84.3175,"MEAN_ANOMALY":275.8273,"EPHEMERIS_TYPE":0,"CLASSIFICATION_TYPE":"U","NORAD_CAT_ID":43578,"ELEMENT_SET_NO":999,"REV_AT_EPOCH":41515,"BSTAR":0.0000056954,"MEAN_MOTION_DOT":3.6e-7,"MEAN_MOTION_DDOT":0}},{"id":"43922","name":"IRIDIUM 180","constellationId":"iridium","omm":{"OBJECT_NAME":"IRIDIUM 180","OBJECT_ID":"2019-002A","EPOCH":"2026-06-29T13:18:50.927040","MEAN_MOTION":14.34217874,"ECCENTRICITY":0.0002232,"INCLINATION":86.3975,"RA_OF_ASC_NODE":348.4265,"ARG_OF_PERICENTER":89.468,"MEAN_ANOMALY":270.6771,"EPHEMERIS_TYPE":0,"CLASSIFICATION_TYPE":"U","NORAD_CAT_ID":43922,"ELEMENT_SET_NO":999,"REV_AT_EPOCH":39076,"BSTAR":0.000011141,"MEAN_MOTION_DOT":5.1e-7,"MEAN_MOTION_DDOT":0}},{"id":"43923","name":"IRIDIUM 176","constellationId":"iridium","omm":{"OBJECT_NAME":"IRIDIUM 176","OBJECT_ID":"2019-002B","EPOCH":"2026-06-29T12:41:54.316896","MEAN_MOTION":14.72230189,"ECCENTRICITY":0.0002399,"INCLINATION":86.6096,"RA_OF_ASC_NODE":348.3788,"ARG_OF_PERICENTER":88.2772,"MEAN_ANOMALY":271.872,"EPHEMERIS_TYPE":0,"CLASSIFICATION_TYPE":"U","NORAD_CAT_ID":43923,"ELEMENT_SET_NO":999,"REV_AT_EPOCH":40106,"BSTAR":0.00011751,"MEAN_MOTION_DOT":0.00000765,"MEAN_MOTION_DDOT":0}},{"id":"43924","name":"IRIDIUM 168","constellationId":"iridium","omm":{"OBJECT_NAME":"IRIDIUM 168","OBJECT_ID":"2019-002C","EPOCH":"2026-06-29T13:09:42.585120","MEAN_MOTION":14.34217463,"ECCENTRICITY":0.000222,"INCLINATION":86.3978,"RA_OF_ASC_NODE":348.5067,"ARG_OF_PERICENTER":90.2273,"MEAN_ANOMALY":269.9177,"EPHEMERIS_TYPE":0,"CLASSIFICATION_TYPE":"U","NORAD_CAT_ID":43924,"ELEMENT_SET_NO":999,"REV_AT_EPOCH":39074,"BSTAR":0.000037503,"MEAN_MOTION_DOT":0.00000125,"MEAN_MOTION_DDOT":0}},{"id":"43925","name":"IRIDIUM 173","constellationId":"iridium","omm":{"OBJECT_NAME":"IRIDIUM 173","OBJECT_ID":"2019-002D","EPOCH":"2026-06-29T12:51:26.926848","MEAN_MOTION":14.34217614,"ECCENTRICITY":0.0002052,"INCLINATION":86.3973,"RA_OF_ASC_NODE":348.4006,"ARG_OF_PERICENTER":89.0944,"MEAN_ANOMALY":271.0487,"EPHEMERIS_TYPE":0,"CLASSIFICATION_TYPE":"U","NORAD_CAT_ID":43925,"ELEMENT_SET_NO":999,"REV_AT_EPOCH":39072,"BSTAR":-0.0000017062,"MEAN_MOTION_DOT":1.5e-7,"MEAN_MOTION_DDOT":0}},{"id":"43926","name":"IRIDIUM 169","constellationId":"iridium","omm":{"OBJECT_NAME":"IRIDIUM 169","OBJECT_ID":"2019-002E","EPOCH":"2026-06-29T13:31:36.159744","MEAN_MOTION":14.38609029,"ECCENTRICITY":0.0001646,"INCLINATION":86.4217,"RA_OF_ASC_NODE":20.0178,"ARG_OF_PERICENTER":85.8082,"MEAN_ANOMALY":274.3305,"EPHEMERIS_TYPE":0,"CLASSIFICATION_TYPE":"U","NORAD_CAT_ID":43926,"ELEMENT_SET_NO":999,"REV_AT_EPOCH":39200,"BSTAR":0.000085377,"MEAN_MOTION_DOT":0.00000281,"MEAN_MOTION_DDOT":0}},{"id":"43927","name":"IRIDIUM 172","constellationId":"iridium","omm":{"OBJECT_NAME":"IRIDIUM 172","OBJECT_ID":"2019-002F","EPOCH":"2026-06-29T12:42:18.922752","MEAN_MOTION":14.34217189,"ECCENTRICITY":0.000224,"INCLINATION":86.3974,"RA_OF_ASC_NODE":348.411,"ARG_OF_PERICENTER":89.3986,"MEAN_ANOMALY":270.7466,"EPHEMERIS_TYPE":0,"CLASSIFICATION_TYPE":"U","NORAD_CAT_ID":43927,"ELEMENT_SET_NO":999,"REV_AT_EPOCH":39073,"BSTAR":0.000007695,"MEAN_MOTION_DOT":4.1e-7,"MEAN_MOTION_DDOT":0}},{"id":"43928","name":"IRIDIUM 175","constellationId":"iridium","omm":{"OBJECT_NAME":"IRIDIUM 175","OBJECT_ID":"2019-002G","EPOCH":"2026-06-29T08:04:43.133376","MEAN_MOTION":14.43619311,"ECCENTRICITY":0.0004011,"INCLINATION":86.4518,"RA_OF_ASC_NODE":285.4424,"ARG_OF_PERICENTER":148.0948,"MEAN_ANOMALY":212.0497,"EPHEMERIS_TYPE":0,"CLASSIFICATION_TYPE":"U","NORAD_CAT_ID":43928,"ELEMENT_SET_NO":999,"REV_AT_EPOCH":40073,"BSTAR":0.00008953,"MEAN_MOTION_DOT":0.00000323,"MEAN_MOTION_DDOT":0}},{"id":"43929","name":"IRIDIUM 171","constellationId":"iridium","omm":{"OBJECT_NAME":"IRIDIUM 171","OBJECT_ID":"2019-002H","EPOCH":"2026-06-29T12:14:54.944160","MEAN_MOTION":14.34217593,"ECCENTRICITY":0.0002129,"INCLINATION":86.3984,"RA_OF_ASC_NODE":348.7264,"ARG_OF_PERICENTER":93.9192,"MEAN_ANOMALY":266.2247,"EPHEMERIS_TYPE":0,"CLASSIFICATION_TYPE":"U","NORAD_CAT_ID":43929,"ELEMENT_SET_NO":999,"REV_AT_EPOCH":39072,"BSTAR":-0.0000015886,"MEAN_MOTION_DOT":1.5e-7,"MEAN_MOTION_DDOT":0}},{"id":"43930","name":"IRIDIUM 170","constellationId":"iridium","omm":{"OBJECT_NAME":"IRIDIUM 170","OBJECT_ID":"2019-002J","EPOCH":"2026-06-29T12:50:47.918112","MEAN_MOTION":14.72230791,"ECCENTRICITY":0.0002461,"INCLINATION":86.6095,"RA_OF_ASC_NODE":348.3786,"ARG_OF_PERICENTER":84.8368,"MEAN_ANOMALY":275.313,"EPHEMERIS_TYPE":0,"CLASSIFICATION_TYPE":"U","NORAD_CAT_ID":43930,"ELEMENT_SET_NO":999,"REV_AT_EPOCH":40107,"BSTAR":0.00011849,"MEAN_MOTION_DOT":0.00000771,"MEAN_MOTION_DDOT":0}},{"id":"43931","name":"IRIDIUM 167","constellationId":"iridium","omm":{"OBJECT_NAME":"IRIDIUM 167","OBJECT_ID":"2019-002K","EPOCH":"2026-06-29T12:05:46.906368","MEAN_MOTION":14.3421751,"ECCENTRICITY":0.0001911,"INCLINATION":86.3972,"RA_OF_ASC_NODE":348.4442,"ARG_OF_PERICENTER":98.057,"MEAN_ANOMALY":262.0843,"EPHEMERIS_TYPE":0,"CLASSIFICATION_TYPE":"U","NORAD_CAT_ID":43931,"ELEMENT_SET_NO":999,"REV_AT_EPOCH":39072,"BSTAR":-0.0000026686,"MEAN_MOTION_DOT":1.2e-7,"MEAN_MOTION_DDOT":0}}]}