IRIDIUM 154             
1 43574U 18061F   26179.74340840  .00000034  00000+0  50042-5 0  9996
2 43574  86.3952  51.9744 0002195  89.3902 270.7545 14.34217614415065
IRIDIUM 163             
1 43575U 18061G   26180.14299184  .00000071  00000+0  18252-4 0  9994
2 43575  86.3949  51.7222 0002187  83.8633 276.2812 14.34217827415099
IRIDIUM 156             
1 43576U 18061H   26179.69901337  .00000224  00000+0  73047-4 0  9996
2 43576  86.3950  51.9152 0002016  86.2814 273.8613 14.34219516415027
IRIDIUM 164             
1 43577U 18061J   26179.74975096  .00000036  00000+0  56905-5 0  9992
2 43577  86.3952  51.9345 0002231  90.2361 269.9090 14.34217769415073
IRIDIUM 159             
1 43578U 18061K   26180.55526067  .00000036  00000+0  56954-5 0  9998
2 43578  86.3947  51.5341 0002211  84.3175 275.8273 14.34217593415158
IRIDIUM 180             
1 43922U 19002A   26180.55475610  .00000051  00000+0  11141-4 0  9999
2 43922  86.3975 348.4265 0002232  89.4680 270.6771 14.34217874390762
IRIDIUM 176             
1 43923U 19002B   26180.52910089  .00000765  00000+0  11751-3 0  9999
2 43923  86.6096 348.3788 0002399  88.2772 271.8720 14.72230189401061
IRIDIUM 168             
1 43924U 19002C   26180.54840955  .00000125  00000+0  37503-4 0  9990
2 43924  86.3978 348.5067 0002220  90.2273 269.9177 14.34217463390746
IRIDIUM 173             
1 43925U 19002D   26180.53572832  .00000015  00000+0 -17062-5 0  9994
2 43925  86.3973 348.4006 0002052  89.0944 271.0487 14.34217614390722
IRIDIUM 169             
1 43926U 19002E   26180.56361296  .00000281  00000+0  85377-4 0  9995
2 43926  86.4217  20.0178 0001646  85.8082 274.3305 14.38609029392000
IRIDIUM 172             
1 43927U 19002F   26180.52938568  .00000041  00000+0  76950-5 0  9996
2 43927  86.3974 348.4110 0002240  89.3986 270.7466 14.34217189390730
IRIDIUM 175             
1 43928U 19002G   26180.33661034  .00000323  00000+0  89530-4 0  9997
2 43928  86.4518 285.4424 0004011 148.0948 212.0497 14.43619311400731
IRIDIUM 171             
1 43929U 19002H   26180.51035815  .00000015  00000+0 -15886-5 0  9993
2 43929  86.3984 348.7264 0002129  93.9192 266.2247 14.34217593390727
IRIDIUM 170             
1 43930U 19002J   26180.53527683  .00000771  00000+0  11849-3 0  9997
2 43930  86.6095 348.3786 0002461  84.8368 275.3130 14.72230791401073
IRIDIUM 167             
1 43931U 19002K   26180.50401512  .00000012  00000+0 -26686-5 0  9993
2 43931  86.3972 348.4442 0001911  98.0570 262.0843 14.34217510390721
